[{"OBJECT_NAME":"STARLINK-34672","OBJECT_ID":"2025-224N","EPOCH":"2026-03-09T02:36:14.972832","MEAN_MOTION":15.30204692,"ECCENTRICITY":5.318e-5,"INCLINATION":53.1616,"RA_OF_ASC_NODE":14.1636,"ARG_OF_PERICENTER":91.8621,"MEAN_ANOMALY":268.2441,"EPHEMERIS_TYPE":0,"CLASSIFICATION_TYPE":"U","NORAD_CAT_ID":65894,"ELEMENT_SET_NO":999,"REV_AT_EPOCH":2478,"BSTAR":0.0008514544,"MEAN_MOTION_DOT":0.00024947,"MEAN_MOTION_DDOT":0},{"OBJECT_NAME":"OBJECT BC","OBJECT_ID":"2025-313BC","EPOCH":"2026-03-09T04:33:08.504064","MEAN_MOTION":15.29126358,"ECCENTRICITY":0.00084789,"INCLINATION":97.3985,"RA_OF_ASC_NODE":144.811,"ARG_OF_PERICENTER":328.9209,"MEAN_ANOMALY":31.1528,"EPHEMERIS_TYPE":0,"CLASSIFICATION_TYPE":"U","NORAD_CAT_ID":67298,"ELEMENT_SET_NO":999,"REV_AT_EPOCH":789,"BSTAR":0.0026410397,"MEAN_MOTION_DOT":0.00075331,"MEAN_MOTION_DDOT":0}]
